ONEWEB-0020             
1 45133U 20008C   24330.03013318  .00000700  00000+0  19685-2 0  9994
2 45133  87.8888 149.6023 0001312  88.8693 271.2585 13.10373591233808
ONEWEB-0021             
1 45134U 20008D   24330.42685728  .00000513  00000+0  14336-2 0  9998
2 45134  87.8890 149.5459 0001606  84.7255 275.4056 13.10372869234165
ONEWEB-0023             
1 45136U 20008F   24330.43931422  .00000070  00000+0  16360-3 0  9994
2 45136  87.8887 149.5319 0001606  96.4031 263.7280 13.10367932233590
ONEWEB-0024             
1 45137U 20008G   24330.56297547  .00000604  00000+0  16951-2 0  9990
2 45137  87.8879 149.4782 0001495  80.7663 279.3634 13.10374377234529
ONEWEB-0025             
1 45138U 20008H   24330.50490053  .00000469  00000+0  13069-2 0  9998
2 45138  87.8875 149.4899 0002092  88.2107 271.9260 13.10371143234841
ONEWEB-0026             
1 45139U 20008J   24330.44242596  .00000388  00000+0  10600-2 0  9997
2 45139  87.8884 134.3808 0001316  92.8001 267.3277 13.11420055236563
ONEWEB-0028             
1 45140U 20008K   24330.39750671  .00000002  00000+0 -29990-4 0  9999
2 45140  87.8880 134.4233 0002096  91.2267 268.9101 13.11412990234073
ONEWEB-0032             
1 45141U 20008L   24330.44343717 -.00000308  00000+0 -91819-3 0  9993
2 45141  87.8878 149.5511 0001740  85.2429 274.8897 13.10369510233812
